{
  "features": [
    {
      "geometry": {
        "coordinates": [
          [
            91.90446,
            25.561051
          ],
          [
            91.899194,
            25.568946
          ],
          [
            91.89835,
            25.570225
          ],
          [
            91.892936,
            25.569015
          ],
          [
            91.888761,
            25.562697
          ],
          [
            91.883372,
            25.566428
          ],
          [
            91.881922,
            25.57705
          ],
          [
            91.875385,
            25.576651
          ]
        ],
        "type": "LineString"
      },
      "properties": {
        "Route Code": "SC-HAPPYVALLEY-R",
        "Travel Mode": "DRIVE"
      },
      "type": "Feature"
    },
    {
      "geometry": {
        "coordinates": [
          91.90446,
          25.561051
        ],
        "type": "Point"
      },
      "properties": {
        "Provider Id": 1,
        "Stop Code": "SC_NONGTHYMMAI",
        "Stop Name": "Nongthymmai",
        "Stop Type": "NEW STOP",
        "routes": [
          "SC-HAPPYVALLEY-R"
        ]
      },
      "type": "Feature"
    },
    {
      "geometry": {
        "coordinates": [
          91.899194,
          25.568946
        ],
        "type": "Point"
      },
      "properties": {
        "Provider Id": 2,
        "Stop Code": "SC_BEATHOUSE",
        "Stop Name": "Beat House",
        "Stop Type": "NEW STOP",
        "routes": [
          "SC-HAPPYVALLEY-R"
        ]
      },
      "type": "Feature"
    },
    {
      "geometry": {
        "coordinates": [
          91.89835,
          25.570225
        ],
        "type": "Point"
      },
      "properties": {
        "Provider Id": 3,
        "Stop Code": "SC_LAITUMKHRAH",
        "Stop Name": "Laitumkhrah",
        "Stop Type": "NEW STOP",
        "routes": [
          "SC-HAPPYVALLEY-R"
        ]
      },
      "type": "Feature"
    },
    {
      "geometry": {
        "coordinates": [
          91.892936,
          25.569015
        ],
        "type": "Point"
      },
      "properties": {
        "Provider Id": 4,
        "Stop Code": "SC_DONBOSCO",
        "Stop Name": "Don Bosco",
        "Stop Type": "NEW STOP",
        "routes": [
          "SC-HAPPYVALLEY-R"
        ]
      },
      "type": "Feature"
    },
    {
      "geometry": {
        "coordinates": [
          91.888761,
          25.562697
        ],
        "type": "Point"
      },
      "properties": {
        "Provider Id": 5,
        "Stop Code": "SC_MALKI",
        "Stop Name": "Malki",
        "Stop Type": "NEW STOP",
        "routes": [
          "SC-HAPPYVALLEY-R"
        ]
      },
      "type": "Feature"
    },
    {
      "geometry": {
        "coordinates": [
          91.883372,
          25.566428
        ],
        "type": "Point"
      },
      "properties": {
        "Provider Id": 6,
        "Stop Code": "SC_BARIK",
        "Stop Name": "Barik",
        "Stop Type": "NEW STOP",
        "routes": [
          "SC-HAPPYVALLEY-R"
        ]
      },
      "type": "Feature"
    },
    {
      "geometry": {
        "coordinates": [
          91.881922,
          25.57705
        ],
        "type": "Point"
      },
      "properties": {
        "Provider Id": 7,
        "Stop Code": "SC_POLICEBAZAR",
        "Stop Name": "Police Bazar",
        "Stop Type": "NEW STOP",
        "routes": [
          "SC-HAPPYVALLEY-R"
        ]
      },
      "type": "Feature"
    },
    {
      "geometry": {
        "coordinates": [
          91.875385,
          25.576651
        ],
        "type": "Point"
      },
      "properties": {
        "Provider Id": 8,
        "Stop Code": "SC_IEWDUH",
        "Stop Name": "Iewduh",
        "Stop Type": "NEW STOP",
        "routes": [
          "SC-HAPPYVALLEY-R"
        ]
      },
      "type": "Feature"
    }
  ],
  "type": "FeatureCollection"
}
