{
  "features": [
    {
      "geometry": {
        "coordinates": [
          [
            91.880451,
            25.557032
          ],
          [
            91.872697,
            25.557494
          ],
          [
            91.876965,
            25.573304
          ],
          [
            91.871261,
            25.563426
          ],
          [
            91.8766,
            25.562998
          ],
          [
            91.879675,
            25.566754
          ],
          [
            91.880804,
            25.568476
          ],
          [
            91.875385,
            25.576651
          ]
        ],
        "type": "LineString"
      },
      "properties": {
        "Route Code": "SC-LABAN-R",
        "Travel Mode": "DRIVE"
      },
      "type": "Feature"
    },
    {
      "geometry": {
        "coordinates": [
          91.880451,
          25.557032
        ],
        "type": "Point"
      },
      "properties": {
        "Provider Id": 1,
        "Stop Code": "SC_LUMPARING",
        "Stop Name": "Lumparing",
        "Stop Type": "NEW STOP",
        "routes": [
          "SC-LABAN-R"
        ]
      },
      "type": "Feature"
    },
    {
      "geometry": {
        "coordinates": [
          91.872697,
          25.557494
        ],
        "type": "Point"
      },
      "properties": {
        "Provider Id": 2,
        "Stop Code": "SC_MADANLABAN",
        "Stop Name": "Madan Laban",
        "Stop Type": "NEW STOP",
        "routes": [
          "SC-LABAN-R"
        ]
      },
      "type": "Feature"
    },
    {
      "geometry": {
        "coordinates": [
          91.876965,
          25.573304
        ],
        "type": "Point"
      },
      "properties": {
        "Provider Id": 3,
        "Stop Code": "SC_ANJALEE",
        "Stop Name": "Anjalee",
        "Stop Type": "NEW STOP",
        "routes": [
          "SC-LABAN-R"
        ]
      },
      "type": "Feature"
    },
    {
      "geometry": {
        "coordinates": [
          91.871261,
          25.563426
        ],
        "type": "Point"
      },
      "properties": {
        "Provider Id": 4,
        "Stop Code": "SC_BISHNUPUR",
        "Stop Name": "Bishnupur",
        "Stop Type": "NEW STOP",
        "routes": [
          "SC-LABAN-R"
        ]
      },
      "type": "Feature"
    },
    {
      "geometry": {
        "coordinates": [
          91.8766,
          25.562998
        ],
        "type": "Point"
      },
      "properties": {
        "Provider Id": 5,
        "Stop Code": "SC_LABAN",
        "Stop Name": "Laban",
        "Stop Type": "NEW STOP",
        "routes": [
          "SC-LABAN-R"
        ]
      },
      "type": "Feature"
    },
    {
      "geometry": {
        "coordinates": [
          91.879675,
          25.566754
        ],
        "type": "Point"
      },
      "properties": {
        "Provider Id": 6,
        "Stop Code": "SC_REDCROSS",
        "Stop Name": "Red Cross",
        "Stop Type": "NEW STOP",
        "routes": [
          "SC-LABAN-R"
        ]
      },
      "type": "Feature"
    },
    {
      "geometry": {
        "coordinates": [
          91.880804,
          25.568476
        ],
        "type": "Point"
      },
      "properties": {
        "Provider Id": 7,
        "Stop Code": "SC_CIVILHOSPITAL",
        "Stop Name": "Civil Hospital",
        "Stop Type": "NEW STOP",
        "routes": [
          "SC-LABAN-R"
        ]
      },
      "type": "Feature"
    },
    {
      "geometry": {
        "coordinates": [
          91.875385,
          25.576651
        ],
        "type": "Point"
      },
      "properties": {
        "Provider Id": 8,
        "Stop Code": "SC_IEWDUH",
        "Stop Name": "Iewduh",
        "Stop Type": "NEW STOP",
        "routes": [
          "SC-LABAN-R"
        ]
      },
      "type": "Feature"
    }
  ],
  "type": "FeatureCollection"
}
