{
  "features": [
    {
      "geometry": {
        "coordinates": [
          [
            91.875385,
            25.576651
          ],
          [
            91.872198,
            25.571326
          ]
        ],
        "type": "LineString"
      },
      "properties": {
        "Route Code": "SC-MAWPREM-F",
        "Travel Mode": "DRIVE"
      },
      "type": "Feature"
    },
    {
      "geometry": {
        "coordinates": [
          91.875385,
          25.576651
        ],
        "type": "Point"
      },
      "properties": {
        "Provider Id": 1,
        "Stop Code": "SC_IEWDUH",
        "Stop Name": "Iewduh",
        "Stop Type": "NEW STOP",
        "routes": [
          "SC-MAWPREM-F"
        ]
      },
      "type": "Feature"
    },
    {
      "geometry": {
        "coordinates": [
          91.872198,
          25.571326
        ],
        "type": "Point"
      },
      "properties": {
        "Provider Id": 2,
        "Stop Code": "SC_MILITARYHOSPITAL",
        "Stop Name": "Military Hospital",
        "Stop Type": "NEW STOP",
        "routes": [
          "SC-MAWPREM-F"
        ]
      },
      "type": "Feature"
    }
  ],
  "type": "FeatureCollection"
}
