{
  "features": [
    {
      "geometry": {
        "coordinates": [
          [
            91.912125,
            25.588368
          ],
          [
            91.898121,
            25.587883
          ],
          [
            91.884472,
            25.58344
          ],
          [
            91.900724,
            25.585519
          ],
          [
            91.888827,
            25.582728
          ],
          [
            91.887608,
            25.581373
          ],
          [
            91.881922,
            25.57705
          ],
          [
            91.875385,
            25.576651
          ]
        ],
        "type": "LineString"
      },
      "properties": {
        "Route Code": "SC-PYNTHOR-R",
        "Travel Mode": "DRIVE"
      },
      "type": "Feature"
    },
    {
      "geometry": {
        "coordinates": [
          91.912125,
          25.588368
        ],
        "type": "Point"
      },
      "properties": {
        "Provider Id": 1,
        "Stop Code": "SC_NONGMYNSONG",
        "Stop Name": "Nongmynsong",
        "Stop Type": "NEW STOP",
        "routes": [
          "SC-PYNTHOR-R"
        ]
      },
      "type": "Feature"
    },
    {
      "geometry": {
        "coordinates": [
          91.898121,
          25.587883
        ],
        "type": "Point"
      },
      "properties": {
        "Provider Id": 2,
        "Stop Code": "SC_MAWPAT",
        "Stop Name": "Mawpat",
        "Stop Type": "NEW STOP",
        "routes": [
          "SC-PYNTHOR-R"
        ]
      },
      "type": "Feature"
    },
    {
      "geometry": {
        "coordinates": [
          91.884472,
          25.58344
        ],
        "type": "Point"
      },
      "properties": {
        "Provider Id": 3,
        "Stop Code": "SC_GANESHDASHOSPITAL",
        "Stop Name": "Ganesh Das Hospital",
        "Stop Type": "NEW STOP",
        "routes": [
          "SC-PYNTHOR-R"
        ]
      },
      "type": "Feature"
    },
    {
      "geometry": {
        "coordinates": [
          91.900724,
          25.585519
        ],
        "type": "Point"
      },
      "properties": {
        "Provider Id": 4,
        "Stop Code": "SC_PYNTHORUMKHRAH",
        "Stop Name": "Pynthorumkhrah",
        "Stop Type": "NEW STOP",
        "routes": [
          "SC-PYNTHOR-R"
        ]
      },
      "type": "Feature"
    },
    {
      "geometry": {
        "coordinates": [
          91.888827,
          25.582728
        ],
        "type": "Point"
      },
      "properties": {
        "Provider Id": 5,
        "Stop Code": "SC_GOLFLINK",
        "Stop Name": "Golf Link",
        "Stop Type": "NEW STOP",
        "routes": [
          "SC-PYNTHOR-R"
        ]
      },
      "type": "Feature"
    },
    {
      "geometry": {
        "coordinates": [
          91.887608,
          25.581373
        ],
        "type": "Point"
      },
      "properties": {
        "Provider Id": 6,
        "Stop Code": "SC_POLOBAZAR",
        "Stop Name": "Polo Bazar",
        "Stop Type": "NEW STOP",
        "routes": [
          "SC-PYNTHOR-R"
        ]
      },
      "type": "Feature"
    },
    {
      "geometry": {
        "coordinates": [
          91.881922,
          25.57705
        ],
        "type": "Point"
      },
      "properties": {
        "Provider Id": 7,
        "Stop Code": "SC_POLICEBAZAR",
        "Stop Name": "Police Bazar",
        "Stop Type": "NEW STOP",
        "routes": [
          "SC-PYNTHOR-R"
        ]
      },
      "type": "Feature"
    },
    {
      "geometry": {
        "coordinates": [
          91.875385,
          25.576651
        ],
        "type": "Point"
      },
      "properties": {
        "Provider Id": 8,
        "Stop Code": "SC_IEWDUH",
        "Stop Name": "Iewduh",
        "Stop Type": "NEW STOP",
        "routes": [
          "SC-PYNTHOR-R"
        ]
      },
      "type": "Feature"
    }
  ],
  "type": "FeatureCollection"
}
